[{"OBJECT_NAME":"STARLINK-31804","OBJECT_ID":"2024-082L","EPOCH":"2026-03-09T13:09:53.428320","MEAN_MOTION":15.27565095,"ECCENTRICITY":8.51e-5,"INCLINATION":42.9984,"RA_OF_ASC_NODE":140.317,"ARG_OF_PERICENTER":242.8733,"MEAN_ANOMALY":117.2032,"EPHEMERIS_TYPE":0,"CLASSIFICATION_TYPE":"U","NORAD_CAT_ID":59641,"ELEMENT_SET_NO":999,"REV_AT_EPOCH":10479,"BSTAR":-5.0156e-5,"MEAN_MOTION_DOT":-1.641e-5,"MEAN_MOTION_DDOT":0},{"OBJECT_NAME":"ELECTRON KICK STAGE R\/B","OBJECT_ID":"2022-147B","EPOCH":"2026-03-09T22:28:20.187264","MEAN_MOTION":15.28920172,"ECCENTRICITY":0.00095089,"INCLINATION":97.642,"RA_OF_ASC_NODE":85.1135,"ARG_OF_PERICENTER":110.4683,"MEAN_ANOMALY":249.7578,"EPHEMERIS_TYPE":0,"CLASSIFICATION_TYPE":"U","NORAD_CAT_ID":54228,"ELEMENT_SET_NO":999,"REV_AT_EPOCH":18390,"BSTAR":0.00083201931,"MEAN_MOTION_DOT":0.00023374,"MEAN_MOTION_DDOT":0}]
